OSCAR 7 (AO-7)          
1 07530U 74089B   26194.64811419 -.00000028  00000+0  11732-3 0  9996
2 07530 101.9905 208.1705 0012658  81.2119  35.6373 12.53698537363838
PHASE 3B (AO-10)        
1 14129U 83058B   26194.10401075 -.00000187  00000+0  00000+0 0  9996
2 14129  25.9345 215.2934 6002223 122.7887 309.2966  2.05872336296023
UOSAT 2 (UO-11)         
1 14781U 84021B   26194.46481698  .00000706  00000+0  77303-4 0  9990
2 14781  97.8075 159.7493 0009192  96.2389 263.9877 14.90846440261040
LUSAT (LO-19)           
1 20442U 90005G   26194.62424062  .00000043  00000+0  31846-4 0  9996
2 20442  98.8848 217.1575 0012492 125.7335 234.5012 14.34130464906182
EYESAT A (AO-27)        
1 22825U 93061C   26194.15132456  .00000041  00000+0  32598-4 0  9992
2 22825  98.6869 261.5539 0008875  31.5428 328.6285 14.30948752710712
ITAMSAT (IO-26)         
1 22826U 93061D   26194.12298664  .00000033  00000+0  29299-4 0  9999
2 22826  98.6817 261.4457 0009085  15.3060 344.8396 14.31376322711027
RADIO ROSTO (RS15)      
1 23439U 94085A   26194.54532953 -.00000019  00000+0  67664-3 0  9997
2 23439  64.8158 260.5892 0156847 359.0113   1.0481 11.27583538298871
JAS-2 (FO-29)           
1 24278U 96046B   26194.55731462  .00000020  00000+0  55297-4 0  9996
2 24278  98.5220  39.8146 0350433  28.1834 333.7792 13.53275527476737
TECHSAT 1B (GO-32)      
1 25397U 98043D   26194.54595469  .00000016  00000+0  27074-4 0  9999
2 25397  99.0084 187.9711 0002146 116.9543 243.1854 14.24433163455084
ISS (ZARYA)             
1 25544U 98067A   26194.31484285  .00004029  00000+0  81266-4 0  9998
2 25544  51.6305 170.7871 0006687 290.3592  69.6678 15.48997295575806
PCSAT (NO-44)           
1 26931U 01043C   26194.42110003  .00000022  00000+0  39237-4 0  9993
2 26931  67.0493 176.4180 0005942 266.4471  93.5951 14.31964599294209
SAUDISAT 1C (SO-50)     
1 27607U 02058C   26194.65572767  .00000372  00000+0  61967-4 0  9998
2 27607  64.5517  47.0888 0074573 257.5598 101.7156 14.83096658268382
CUTE-1 (CO-55)          
1 27844U 03031E   26194.45028445  .00000157  00000+0  86848-4 0  9996
2 27844  98.6742 202.6793 0010803 107.1223 253.1140 14.24350896195418
CUBESAT XI-IV (CO-57)   
1 27848U 03031J   26194.52222380  .00000129  00000+0  75510-4 0  9995
2 27848  98.6773 202.4416 0010486 123.7879 236.4299 14.23634004195126
MOZHAETS 4 (RS22)       
1 27939U 03042A   26194.62856855  .00000659  00000+0  10965-3 0  9999
2 27939  98.3472  19.7361 0011113 178.1971 247.0000 14.73513085219443
CUBESAT XI-V            
1 28895U 05043F   26194.42545375  .00000720  00000+0  12097-3 0  9991
2 28895  98.3010 350.6030 0015194 120.4468 239.8242 14.72699773105615
CUTE-1.7+APD II (CO-65) 
1 32785U 08021C   26194.56400278  .00003139  00000+0  19898-3 0  9993
2 32785  97.8288 176.5377 0007178 306.1593  53.8971 15.09691192989175
SEEDS II (CO-66)        
1 32791U 08021J   26194.50259132  .00010586  00000+0  32808-3 0  9995
2 32791  97.7522 193.6748 0002885 159.9785 200.1570 15.33629018991328
YUBILEINY (RS30)        
1 32953U 08025A   26194.57574850  .00000006  00000+0 -23497-4 0  9995
2 32953  82.5053 339.0238 0018580 252.7325 107.1722 12.43180636822975
KKS-1 (KISEKI)          
1 33499U 09002H   26194.50038176  .00000661  00000+0  87832-4 0  9995
2 33499  98.1176 117.3595 0007284 194.7767 165.3234 14.83186776940092
SWISSCUBE               
1 35932U 09051B   26194.64576124  .00000489  00000+0  10618-3 0  9993
2 35932  98.4010 102.9928 0007783 123.1717 237.0231 14.62529160893020
BEESAT-1                
1 35933U 09051C   26194.53212848  .00000395  00000+0  89036-4 0  9999
2 35933  98.3938 102.4573 0006030 134.1484 226.0213 14.61760314893033
ITUPSAT1                
1 35935U 09051E   26192.97035851  .00000388  00000+0  90106-4 0  9996
2 35935  98.4023 100.0372 0007861 152.4089 207.7529 14.60475983892353
XIWANG-1 (HOPE-1)       
1 36122U 09072B   26194.61557567  .00000099  00000+0  37668-3 0  9996
2 36122 100.4029 148.0269 0007487 168.1319 191.9972 13.16439974796486
O/OREOS (USA 219)       
1 37224U 10062C   26194.64818760  .00001109  00000+0  11028-3 0  9994
2 37224  71.9696  20.3936 0013892   8.1274 352.0119 14.93848117120590
JUGNU                   
1 37839U 11058B   26194.06098558  .00000348  00000+0  42399-4 0  9993
2 37839  19.9592 151.2304 0018498   2.9049  74.5783 14.13783158762692
SRMSAT                  
1 37841U 11058D   26194.45621951  .00000344  00000+0  42889-4 0  9998
2 37841  19.9713 260.4725 0011810 132.1672 338.6137 14.11580880761533
STRAND-1                
1 39090U 13009E   26194.44253241  .00000142  00000+0  62098-4 0  9996
2 39090  98.3932  14.0322 0009320 145.9311 214.2476 14.37178253700832
ZACUBE-1 (TSHEPISOSAT)  
1 39417U 13066B   26194.46840326  .00001341  00000+0  10703-3 0  9997
2 39417  97.8010 156.9353 0043931 160.7484 199.5412 15.01324440684679
GOMX-1                  
1 39430U 13066Q   26194.60518111  .00000859  00000+0  13537-3 0  9993
2 39430  97.6474  33.4013 0128437 353.3274   6.6217 14.69540867673798
