OBJECT_NAME,OBJECT_ID,EPOCH,MEAN_MOTION,ECCENTRICITY,INCLINATION,RA_OF_ASC_NODE,ARG_OF_PERICENTER,MEAN_ANOMALY,EPHEMERIS_TYPE,CLASSIFICATION_TYPE,NORAD_CAT_ID,ELEMENT_SET_NO,REV_AT_EPOCH,BSTAR,MEAN_MOTION_DOT,MEAN_MOTION_DDOT
OSCAR 7 (AO-7),1974-089B,2026-07-13T15:33:17.066016,12.53698537,.00126584,101.9905,208.1705,81.2119,35.6373,0,U,7530,999,36383,.11732479E-3,-.28E-6,0
PHASE 3B (AO-10),1983-058B,2026-07-13T02:29:46.528800,2.05872336,.60022234,25.9345,215.2934,122.7887,309.2966,0,U,14129,999,29602,0,-.187E-5,0
UOSAT 2 (UO-11),1984-021B,2026-07-13T11:09:20.187072,14.90846440,.00091924,97.8075,159.7493,96.2389,263.9877,0,U,14781,999,26104,.77302525E-4,.706E-5,0
LUSAT (LO-19),1990-005G,2026-07-13T14:58:54.389568,14.34130464,.00124925,98.8848,217.1575,125.7335,234.5012,0,U,20442,999,90618,.31846041E-4,.43E-6,0
EYESAT A (AO-27),1993-061C,2026-07-13T03:37:54.441984,14.30948752,.00088758,98.6869,261.5539,31.5428,328.6285,0,U,22825,999,71071,.32597986E-4,.41E-6,0
ITAMSAT (IO-26),1993-061D,2026-07-13T02:57:06.045696,14.31376322,.00090858,98.6817,261.4457,15.3060,344.8396,0,U,22826,999,71102,.29298912E-4,.33E-6,0
RADIO ROSTO (RS15),1994-085A,2026-07-13T13:05:16.471392,11.27583538,.01568479,64.8158,260.5892,359.0113,1.0481,0,U,23439,999,29887,.67664081E-3,-.19E-6,0
JAS-2 (FO-29),1996-046B,2026-07-13T13:22:31.983168,13.53275527,.03504334,98.5220,39.8146,28.1834,333.7792,0,U,24278,999,47673,.55296704E-4,.2E-6,0
TECHSAT 1B (GO-32),1998-043D,2026-07-13T13:06:10.485216,14.24433163,.00021461,99.0084,187.9711,116.9543,243.1854,0,U,25397,999,45508,.27073752E-4,.16E-6,0
ISS (ZARYA),1998-067A,2026-07-13T07:33:22.422240,15.48997295,.0006687,51.6305,170.7871,290.3592,69.6678,0,U,25544,999,57580,.81266333E-4,.4029E-4,0
PCSAT (NO-44),2001-043C,2026-07-13T10:06:23.042592,14.31964599,.00059423,67.0493,176.4180,266.4471,93.5951,0,U,26931,999,29420,.3923713E-4,.22E-6,0
SAUDISAT 1C (SO-50),2002-058C,2026-07-13T15:44:14.870688,14.83096658,.0074573,64.5517,47.0888,257.5598,101.7156,0,U,27607,999,26838,.61966598E-4,.372E-5,0
CUTE-1 (CO-55),2003-031E,2026-07-13T10:48:24.576480,14.24350896,.00108034,98.6742,202.6793,107.1223,253.1140,0,U,27844,999,19541,.8684817E-4,.157E-5,0
CUBESAT XI-IV (CO-57),2003-031J,2026-07-13T12:32:00.136320,14.23634004,.00104861,98.6773,202.4416,123.7879,236.4299,0,U,27848,999,19512,.75510188E-4,.129E-5,0
MOZHAETS 4 (RS22),2003-042A,2026-07-13T15:05:08.322720,14.73513085,.00111139,98.3472,19.7361,178.1971,247.0000,0,U,27939,999,21944,.10965015E-3,.659E-5,0
CUBESAT XI-V,2005-043F,2026-07-13T10:12:39.204000,14.72699773,.00151946,98.3010,350.6030,120.4468,239.8242,0,U,28895,999,10561,.12096734E-3,.72E-5,0
CUTE-1.7+APD II (CO-65),2008-021C,2026-07-13T13:32:09.840192,15.09691192,.00071782,97.8288,176.5377,306.1593,53.8971,0,U,32785,999,98917,.19898133E-3,.3139E-4,0
SEEDS II (CO-66),2008-021J,2026-07-13T12:03:43.890048,15.33629018,.00028857,97.7522,193.6748,159.9785,200.1570,0,U,32791,999,99132,.32807645E-3,.10586E-3,0
YUBILEINY (RS30),2008-025A,2026-07-13T13:49:04.670400,12.43180636,.00185806,82.5053,339.0238,252.7325,107.1722,0,U,32953,999,82297,-.23497234E-4,.6E-7,0
KKS-1 (KISEKI),2009-002H,2026-07-13T12:00:32.984064,14.83186776,.00072848,98.1176,117.3595,194.7767,165.3234,0,U,33499,999,94009,.87832146E-4,.661E-5,0
SWISSCUBE,2009-051B,2026-07-13T15:29:53.771136,14.62529160,.0007783,98.4010,102.9928,123.1717,237.0231,0,U,35932,999,89302,.10617916E-3,.489E-5,0
BEESAT-1,2009-051C,2026-07-13T12:46:15.900672,14.61760314,.00060306,98.3938,102.4573,134.1484,226.0213,0,U,35933,999,89303,.89036067E-4,.395E-5,0
ITUPSAT1,2009-051E,2026-07-11T23:17:18.975264,14.60475983,.0007861,98.4023,100.0372,152.4089,207.7529,0,U,35935,999,89235,.90105677E-4,.388E-5,0
XIWANG-1 (HOPE-1),2009-072B,2026-07-13T14:46:25.737888,13.16439974,.00074876,100.4029,148.0269,168.1319,191.9972,0,U,36122,999,79648,.37668447E-3,.99E-6,0
O/OREOS (USA 219),2010-062C,2026-07-13T15:33:23.408640,14.93848117,.00138928,71.9696,20.3936,8.1274,352.0119,0,U,37224,999,12059,.11027704E-3,.1109E-4,0
JUGNU,2011-058B,2026-07-13T01:27:49.154112,14.13783158,.0018498,19.9592,151.2304,2.9049,74.5783,0,U,37839,999,76269,.42398519E-4,.348E-5,0
SRMSAT,2011-058D,2026-07-13T10:56:57.365664,14.11580880,.00118107,19.9713,260.4725,132.1672,338.6137,0,U,37841,999,76153,.42888582E-4,.344E-5,0
STRAND-1,2013-009E,2026-07-13T10:37:14.800224,14.37178253,.00093202,98.3932,14.0322,145.9311,214.2476,0,U,39090,999,70083,.62097746E-4,.142E-5,0
ZACUBE-1 (TSHEPISOSAT),2013-066B,2026-07-13T11:14:30.041664,15.01324440,.00439319,97.8010,156.9353,160.7484,199.5412,0,U,39417,999,68467,.10702687E-3,.1341E-4,0
GOMX-1,2013-066Q,2026-07-13T14:31:27.647904,14.69540867,.01284377,97.6474,33.4013,353.3274,6.6217,0,U,39430,999,67379,.13537208E-3,.859E-5,0
